[{"OBJECT_NAME":"STARLINK-4689","OBJECT_ID":"2022-104C","EPOCH":"2026-03-09T21:36:07.783776","MEAN_MOTION":15.08840101,"ECCENTRICITY":0.00013714,"INCLINATION":53.2176,"RA_OF_ASC_NODE":243.3854,"ARG_OF_PERICENTER":107.4665,"MEAN_ANOMALY":252.6477,"EPHEMERIS_TYPE":0,"CLASSIFICATION_TYPE":"U","NORAD_CAT_ID":53590,"ELEMENT_SET_NO":999,"REV_AT_EPOCH":19599,"BSTAR":2.739638e-6,"MEAN_MOTION_DOT":-2.44e-6,"MEAN_MOTION_DDOT":0},{"OBJECT_NAME":"KSLV-II R\/B","OBJECT_ID":"2025-274P","EPOCH":"2026-03-09T17:44:44.185056","MEAN_MOTION":14.98166503,"ECCENTRICITY":0.00605567,"INCLINATION":97.7452,"RA_OF_ASC_NODE":0.3618,"ARG_OF_PERICENTER":19.961,"MEAN_ANOMALY":340.3962,"EPHEMERIS_TYPE":0,"CLASSIFICATION_TYPE":"U","NORAD_CAT_ID":66663,"ELEMENT_SET_NO":999,"REV_AT_EPOCH":1543,"BSTAR":0.00059831331,"MEAN_MOTION_DOT":7.309e-5,"MEAN_MOTION_DDOT":0}]
